STARLINK-35427          
1 66110U 25236AA  26156.89061922  .00030609  00000+0  10414-2 0  9998
2 66110  53.1591  54.5365 0001611  92.1625 267.9560 15.30196268 36445
STARLINK-35574          
1 66111U 25236AB  26156.88850173  .00040656  00000+0  13760-2 0  9992
2 66111  53.1586  54.5210 0001367  96.0762 264.0395 15.30229733 36383
STARLINK-35531          
1 66112U 25236AC  26156.98114580  .00026959  00000+0  91847-3 0  9992
2 66112  53.1609  53.6748 0002060  95.1012 265.0224 15.30220401 36469
STARLINK-35491          
1 66113U 25236AD  26156.88639724  .00038820  00000+0  13158-2 0  9992
2 66113  53.1585  54.5057 0001060  89.8925 270.2198 15.30204324 36440
STARLINK-35496          
1 66114U 25237A   26157.25002315  .00003344  00000+0  11008-3 0  9992
2 66114  53.1610 348.1303 0000830 101.7539 181.1946 15.34391569  5927
STARLINK-35428          
1 66115U 25237B   26156.83404572  .00010008  00000+0  34960-3 0  9994
2 66115  53.1593 350.3606 0001427 141.2744 218.8360 15.30198133 36097
STARLINK-35573          
1 66116U 25237C   26156.80449816  .00029361  00000+0  99930-3 0  9992
2 66116  53.1619 350.1747 0001054  93.5961 266.5161 15.30207152 36100
STARLINK-35572          
1 66117U 25237D   26156.82771277  .00044844  00000+0  15163-2 0  9992
2 66117  53.1588 350.3167 0000853  79.7715 280.3382 15.30217236 36106
STARLINK-35468          
1 66118U 25237E   26156.84037741  .00041933  00000+0  14190-2 0  9991
2 66118  53.1595 350.4062 0001086 118.7299 241.3811 15.30222829 36108
STARLINK-35547          
1 66119U 25237F   26156.81082948  .00036388  00000+0  12337-2 0  9997
2 66119  53.1603 350.2121 0001128  62.5321 297.5795 15.30226002 36103
STARLINK-35553          
1 66120U 25237G   26156.66668981 -.00012268  00000+0 -35260-3 0  9993
2 66120  53.1611 350.7656 0001122  95.1448 250.2625 15.34395336  5888
STARLINK-35631          
1 66121U 25237H   26156.83826448  .00030592  00000+0  10404-2 0  9997
2 66121  53.1594 350.3855 0001540  62.0170 298.0986 15.30211452 36106
STARLINK-35653          
1 66122U 25237J   26156.82559213  .00018017  00000+0  61838-3 0  9996
2 66122  53.1592 350.3022 0000741  97.4148 262.6937 15.30229868 36103
STARLINK-35628          
1 66123U 25237K   26156.27986479  .00019067  00000+0  65410-3 0  9990
2 66123  53.1620 352.5871 0001230  63.3410 296.7717 15.30207454 36022
STARLINK-35645          
1 66124U 25237L   26156.81504801  .00028684  00000+0  97628-3 0  9997
2 66124  53.1602 350.2379 0001098 112.5381 247.5736 15.30218614 36101
STARLINK-35649          
1 66125U 25237M   26156.85503751  .00028507  00000+0  97044-3 0  9991
2 66125  53.1624 349.7712 0001254  68.6928 291.4207 15.30215493 36116
STARLINK-35658          
1 66126U 25237N   26156.86136545  .00047540  00000+0  16055-2 0  9996
2 66126  53.1623 349.8133 0001339 102.0157 258.0994 15.30229767 36105
STARLINK-35629          
1 66127U 25237P   26156.84566489  .00023117  00000+0  78967-3 0  9994
2 66127  53.1607 350.4253 0001062  91.9568 268.1554 15.30221143 36108
STARLINK-35612          
1 66128U 25237Q   26156.83720995  .00023237  00000+0  79384-3 0  9995
2 66128  53.1590 350.3837 0000746 123.7554 236.3518 15.30215774 36104
STARLINK-35632          
1 66129U 25237R   26156.04710224  .00020307  00000+0  69561-3 0  9994
2 66129  53.1599 353.9814 0002506 139.7970 220.3217 15.30211851 35989
STARLINK-35637          
1 66130U 25237S   26155.71419384  .00019509  00000+0  66902-3 0  9990
2 66130  53.1581 355.4526 0001335 124.6947 235.4180 15.30202573 35937
STARLINK-35630          
1 66131U 25237T   26156.80173697  .00063636  00000+0  18806-2 0  9995
2 66131  53.1602 350.1580 0001325  52.7659 307.3464 15.34367324 36108
STARLINK-34412          
1 66132U 25237U   26156.81293407  .00031623  00000+0  10743-2 0  9992
2 66132  53.1597 350.2153 0000991  80.4465 279.6648 15.30229010 36010
STARLINK-35520          
1 66133U 25237V   26157.25002315  .00002399  00000+0  84192-4 0  9997
2 66133  53.1610 348.0884 0001601  88.0798 214.2341 15.33568598  5814
STARLINK-35525          
1 66134U 25237W   26156.00002315  .00067988  00000+0  20083-2 0  9992
2 66134  53.1591 354.1330 0000541  66.9805  65.9408 15.34350593  5734
STARLINK-34852          
1 66135U 25237X   26156.83194987  .00008814  00000+0  30991-3 0  9994
2 66135  53.1597 350.3350 0001225 135.5031 224.6069 15.30140598 36060
STARLINK-35592          
1 66136U 25237Y   26156.80555090  .00032336  00000+0  10990-2 0  9990
2 66136  53.1619 350.1729 0000992 111.7173 248.3934 15.30204479 36105
STARLINK-35576          
1 66137U 25237Z   26156.85820112  .00038891  00000+0  13178-2 0  9999
2 66137  53.1620 349.7905 0001006 120.9187 239.1912 15.30212554 36110
STARLINK-35623          
1 66138U 25237AA  26156.25570450  .00025465  00000+0  86844-3 0  9995
2 66138  53.1577 353.1376 0000639  69.3926 290.7143 15.30219460 36012
STARLINK-35549          
1 66139U 25237AB  26156.27669744  .00018978  00000+0  65119-3 0  9996
2 66139  53.1617 352.5630 0000939  81.8102 278.3005 15.30201920 36024
