OBJECT_NAME,OBJECT_ID,EPOCH,MEAN_MOTION,ECCENTRICITY,INCLINATION,RA_OF_ASC_NODE,ARG_OF_PERICENTER,MEAN_ANOMALY,EPHEMERIS_TYPE,CLASSIFICATION_TYPE,NORAD_CAT_ID,ELEMENT_SET_NO,REV_AT_EPOCH,BSTAR,MEAN_MOTION_DOT,MEAN_MOTION_DDOT
STARLINK-35427,2025-236AA,2026-06-05T21:22:29.500608,15.30196268,.00016111,53.1591,54.5365,92.1625,267.9560,0,U,66110,999,3644,.10414327E-2,.30609E-3,0
STARLINK-35574,2025-236AB,2026-06-05T21:19:26.549472,15.30229733,.00013672,53.1586,54.5210,96.0762,264.0395,0,U,66111,999,3638,.13760467E-2,.40656E-3,0
STARLINK-35531,2025-236AC,2026-06-05T23:32:50.997120,15.30220401,.00020606,53.1609,53.6748,95.1012,265.0224,0,U,66112,999,3646,.91846507E-3,.26959E-3,0
STARLINK-35491,2025-236AD,2026-06-05T21:16:24.721536,15.30204324,.00010603,53.1585,54.5057,89.8925,270.2198,0,U,66113,999,3644,.13157988E-2,.3882E-3,0
STARLINK-35496,2025-237A,2026-06-06T06:00:02.000160,15.34391569,.00008305,53.1610,348.1303,101.7539,181.1946,0,U,66114,999,592,.11007707E-3,.3344E-4,0
STARLINK-35428,2025-237B,2026-06-05T20:01:01.550208,15.30198133,.00014276,53.1593,350.3606,141.2744,218.8360,0,U,66115,999,3609,.34959676E-3,.10008E-3,0
STARLINK-35573,2025-237C,2026-06-05T19:18:28.641024,15.30207152,.00010542,53.1619,350.1747,93.5961,266.5161,0,U,66116,999,3610,.99929869E-3,.29361E-3,0
STARLINK-35572,2025-237D,2026-06-05T19:51:54.383328,15.30217236,.0000853,53.1588,350.3167,79.7715,280.3382,0,U,66117,999,3610,.15163E-2,.44844E-3,0
STARLINK-35468,2025-237E,2026-06-05T20:10:08.608224,15.30222829,.00010865,53.1595,350.4062,118.7299,241.3811,0,U,66118,999,3610,.14189528E-2,.41933E-3,0
STARLINK-35547,2025-237F,2026-06-05T19:27:35.667072,15.30226002,.00011287,53.1603,350.2121,62.5321,297.5795,0,U,66119,999,3610,.12337097E-2,.36388E-3,0
STARLINK-35553,2025-237G,2026-06-05T16:00:01.999584,15.34395336,.00011221,53.1611,350.7656,95.1448,250.2625,0,U,66120,999,588,-.35259909E-3,-.12268E-3,0
STARLINK-35631,2025-237H,2026-06-05T20:07:06.051072,15.30211452,.000154,53.1594,350.3855,62.0170,298.0986,0,U,66121,999,3610,.10403771E-2,.30592E-3,0
STARLINK-35653,2025-237J,2026-06-05T19:48:51.160032,15.30229868,.0000741,53.1592,350.3022,97.4148,262.6937,0,U,66122,999,3610,.61838E-3,.18017E-3,0
STARLINK-35628,2025-237K,2026-06-05T06:43:00.317856,15.30207454,.000123,53.1620,352.5871,63.3410,296.7717,0,U,66123,999,3602,.6541E-3,.19067E-3,0
STARLINK-35645,2025-237L,2026-06-05T19:33:40.148064,15.30218614,.00010989,53.1602,350.2379,112.5381,247.5736,0,U,66124,999,3610,.97628182E-3,.28684E-3,0
STARLINK-35649,2025-237M,2026-06-05T20:31:15.240864,15.30215493,.00012543,53.1624,349.7712,68.6928,291.4207,0,U,66125,999,3611,.97044435E-3,.28507E-3,0
STARLINK-35658,2025-237N,2026-06-05T20:40:21.974880,15.30229767,.00013399,53.1623,349.8133,102.0157,258.0994,0,U,66126,999,3610,.16055036E-2,.4754E-3,0
STARLINK-35629,2025-237P,2026-06-05T20:17:45.446496,15.30221143,.00010625,53.1607,350.4253,91.9568,268.1554,0,U,66127,999,3610,.7896718E-3,.23117E-3,0
STARLINK-35612,2025-237Q,2026-06-05T20:05:34.939680,15.30215774,.00007462,53.1590,350.3837,123.7554,236.3518,0,U,66128,999,3610,.79384092E-3,.23237E-3,0
STARLINK-35632,2025-237R,2026-06-05T01:07:49.633536,15.30211851,.00025068,53.1599,353.9814,139.7970,220.3217,0,U,66129,999,3598,.69561249E-3,.20307E-3,0
STARLINK-35637,2025-237S,2026-06-04T17:08:26.347776,15.30202573,.00013352,53.1581,355.4526,124.6947,235.4180,0,U,66130,999,3593,.6690232E-3,.19509E-3,0
STARLINK-35630,2025-237T,2026-06-05T19:14:30.074208,15.34367324,.00013257,53.1602,350.1580,52.7659,307.3464,0,U,66131,999,3610,.18805753E-2,.63636E-3,0
STARLINK-34412,2025-237U,2026-06-05T19:30:37.503648,15.30229010,.00009916,53.1597,350.2153,80.4465,279.6648,0,U,66132,999,3601,.10743197E-2,.31623E-3,0
STARLINK-35520,2025-237V,2026-06-06T06:00:02.000160,15.33568598,.0001601,53.1610,348.0884,88.0798,214.2341,0,U,66133,999,581,.84192052E-4,.2399E-4,0
STARLINK-35525,2025-237W,2026-06-05T00:00:02.000160,15.34350593,.00005414,53.1591,354.1330,66.9805,65.9408,0,U,66134,999,573,.20083295E-2,.67988E-3,0
STARLINK-34852,2025-237X,2026-06-05T19:58:00.468768,15.30140598,.00012252,53.1597,350.3350,135.5031,224.6069,0,U,66135,999,3606,.30990857E-3,.8814E-4,0
STARLINK-35592,2025-237Y,2026-06-05T19:19:59.597760,15.30204479,.00009922,53.1619,350.1729,111.7173,248.3934,0,U,66136,999,3610,.10989804E-2,.32336E-3,0
STARLINK-35576,2025-237Z,2026-06-05T20:35:48.576768,15.30212554,.00010063,53.1620,349.7905,120.9187,239.1912,0,U,66137,999,3611,.1317847E-2,.38891E-3,0
STARLINK-35623,2025-237AA,2026-06-05T06:08:12.868800,15.30219460,.0000639,53.1577,353.1376,69.3926,290.7143,0,U,66138,999,3601,.86844E-3,.25465E-3,0
STARLINK-35549,2025-237AB,2026-06-05T06:38:26.658816,15.30201920,.0000939,53.1617,352.5630,81.8102,278.3005,0,U,66139,999,3602,.65119E-3,.18978E-3,0
